*******************************************************************************
 Revised: Feb 13, 2026              BepiColombo / (Sun)                    -121
                            http://sci.esa.int/bepicolombo/ 
 
 LAUNCH DATE:                                            MERCURY ARRIVAL DATE:
  2018-Oct-20 01:45 UTC                                      2026-Nov         

  Earth flyby: 2020-Apr-10, 04:24:58 UTC @ 19066 km, 352.85 deg E,-19.70 deg S

 LAUNCH VEHICLE:                                         LAUNCH SITE:
  Ariane 5                                                Kourou, French Guiana

 Note (2024-Sep-02): Due to unexpected electric currents between MTM's solar 
  arrays and the power extraction and distribution unit, electric propulsion 
  is reduced, requiring a one-year delay in Mercury arrival, to November 2026. 

 BACKGROUND:
  ESA's BepiColombo mission to orbit Mercury for one Earth year (four Mercury
  years) is composed of two spacecraft: the ESA Mercury Planetary Orbiter (MPO)
  and the ISAS/JAXA Mercury Magnetospheric Orbiter (MMO).

  MMO will be released once the MMO orbit is reached. MPO will be inserted 
  using chemical propulsion.

   1) MPO will study the surface and internal composition of Mercury 
   2) MMO will study the region around the planet influenced by its 
      magnetic field

  For the 8.2 year launch & cruise phases, MPO and MMO will be carried as part 
  of the Mercury Composite Spacecraft and released on arrival at Mercury. 

  There will be nine gravity assists during the cruise phase: 

   2020-Apr-10: Earth flyby
   2020-Oct-15: Venus flyby
   2021-Aug-11: Venus Flyby
   2021-Oct-01: First Mercury flyby
   2022-Jun-23: 2nd Mercury flyby
   2023-Jun-20: 3rd Mercury flyby
   2024-Sep-04: 4th Mercury flyby
   2024-Dec-01: 5th Mercury flyby
   2025-Jan-08: 6th Mercury flyby
   ....
   2026-Nov   : Mercury orbit insertion
   2028-Apr   : End of nominal mission
   2029-Apr   : End of extended mission

 OBJECTIVES:
  Study and understand the composition, geophysics, atmosphere, magnetosphere 
  and history of Mercury with following science objectives:

   * Investigate origin and evolution of a planet close to the parent star
   * Study Mercury form, interior structure, geology, composition and craters
   * Examine composition and dynamics of Mercury's vestigial atmosphere
   * Probe Mercury's magnetized envelope; structure and dynamics
   * Determine the origin of Mercury's magnetic field
   * Investigate polar deposits: their composition and origin
   * Perform a test of Einstein's theory of general relativity
 
 SPACECRAFT PHYSICAL PROPERTIES:
  Total launch mass  = 4100 kg

                         MPO                 MMO
  In Mercury orbit     1150 kg             275 kg  
  Payload mass           80 kg              45 kg
  Payload power        100-150 W            90 W
  Data volume          1550 Gbits/year     160 Gbits/year
  Average data rate    50 kbits/s            5 kbits/s
  Antenna              1-m X/Ka-band       0.8 m X-band
  Orientation          Nadir pointing      Spin axis at 90 deg. to Sun
  Stabilisation        3-axis stabilized   15-rpm spin-stabilised 

 BASIC ORBIT PARAMETERS AT MERCURY:
                       MPO (polar)        MMO (polar)
  peri/apo apses      480 x 1500 km      590 x 11640 km
  period                 2.3 hr            9.3 hr

 SPACECRAFT TRAJECTORY: 
  Trajectory from ESA. Data fit through 2026-Jan-20, prediction thereafter.

   Name                                    Start (TDB)          Stop (TDB)
   --------------------------------------  -----------------  -----------------
   bc_mpo_fcp_00220_20181020_20270407_v01  2018-Oct-20 02:14  2027-Apr-06 23:59
*******************************************************************************


*******************************************************************************
Ephemeris / WWW_USER Sat Feb 21 10:22:31 2026 Pasadena, USA      / Horizons
*******************************************************************************
Target body name: BepiColombo (Spacecraft) (-121) {source: BepiColombo_ESA}
Center body name: Earth (399)                     {source: DE441}
Center-site name: BODY CENTER
*******************************************************************************
Start time      : A.D. 2020-Apr-09 00:00:00.0000 TDB
Stop  time      : A.D. 2020-Apr-11 00:00:00.0000 TDB
Step-size       : 1440 minutes
*******************************************************************************
Center geodetic : 0.0, 0.0, 0.0                   {E-lon(deg),Lat(deg),Alt(km)}
Center cylindric: 0.0, 0.0, 0.0                   {E-lon(deg),Dxy(km),Dz(km)}
Center radii    : 6378.137, 6378.137, 6356.752 km {Equator_a, b, pole_c}
Output units    : KM-S
Calendar mode   : Mixed Julian/Gregorian
Output type     : GEOMETRIC cartesian states
Output format   : 3 (position, velocity, LT, range, range-rate)
EOP file        : eop.260220.p260519
EOP coverage    : DATA-BASED 1962-JAN-20 TO 2026-FEB-20. PREDICTS-> 2026-MAY-18
Reference frame : Ecliptic of J2000.0
*******************************************************************************
JDTDB
   X     Y     Z
   VX    VY    VZ
   LT    RG    RR
*******************************************************************************
$$SOE
2458948.500000000 = A.D. 2020-Apr-09 00:00:00.0000 TDB 
 X = 4.317075995916724E+05 Y = 1.532517500698321E+05 Z = 6.326406333515664E+04
 VX=-3.810352172968988E+00 VY=-1.681803501351835E+00 VZ=-5.256740358895269E-01
 LT= 1.542566760283498E+00 RG= 4.624498806944864E+05 RR=-4.186299264776389E+00
2458949.500000000 = A.D. 2020-Apr-10 00:00:00.0000 TDB 
 X = 8.596786924284697E+04 Y = 3.436484754691782E+03 Z = 1.525129028057388E+04
 VX=-4.604203419334088E+00 VY=-1.833776956305788E+00 VZ=-6.555048666037696E-01
 LT= 2.914610804374875E-01 RG= 8.737783371569010E+04 RR=-4.716443307766890E+00
2458950.500000000 = A.D. 2020-Apr-11 00:00:00.0000 TDB 
 X =-2.458626818594038E+05 Y = 2.067450698229303E+05 Z =-6.477066751371205E+04
 VX=-2.910301111418341E+00 VY= 3.024247095850686E+00 VZ=-8.230553613582863E-01
 LT= 1.093089191830856E+00 RG= 3.276998956322059E+05 RR= 4.254174252120413E+00
$$EOE
*******************************************************************************
 
TIME

  Barycentric Dynamical Time ("TDB" or T_eph) output was requested. This
continuous coordinate time is equivalent to the relativistic proper time
of a clock at rest in a reference frame co-moving with the solar system
barycenter but outside the system's gravity well. It is the independent
variable in the solar system relativistic equations of motion.

  TDB runs at a uniform rate of one SI second per second and is independent
of irregularities in Earth's rotation.
 
CALENDAR SYSTEM

  Mixed calendar mode was active such that calendar dates after AD 1582-Oct-15
(if any) are in the modern Gregorian system. Dates prior to 1582-Oct-5 (if any)
are in the Julian calendar system, which is automatically extended for dates
prior to its adoption on 45-Jan-1 BC.  The Julian calendar is useful for
matching historical dates. The Gregorian calendar more accurately corresponds
to the Earth's orbital motion and seasons. A "Gregorian-only" calendar mode is
available if such physical events are the primary interest.

REFERENCE FRAME AND COORDINATES

  Ecliptic at the standard reference epoch

    Reference epoch: J2000.0
    X-Y plane: adopted Earth orbital plane at the reference epoch
               Note: IAU76 obliquity of 84381.448 arcseconds wrt ICRF X-Y plane
    X-axis   : ICRF
    Z-axis   : perpendicular to the X-Y plane in the directional (+ or -) sense
               of Earth's north pole at the reference epoch.

  Symbol meaning:

    JDTDB    Julian Day Number, Barycentric Dynamical Time
      X      X-component of position vector (km)
      Y      Y-component of position vector (km)
      Z      Z-component of position vector (km)
      VX     X-component of velocity vector (km/sec)                           
      VY     Y-component of velocity vector (km/sec)                           
      VZ     Z-component of velocity vector (km/sec)                           
      LT     One-way down-leg Newtonian light-time (sec)
      RG     Range; distance from coordinate center (km)
      RR     Range-rate; radial velocity wrt coord. center (km/sec)

ABERRATIONS AND CORRECTIONS

 Geometric state vectors have NO corrections or aberrations applied.

Computations by ...

    Solar System Dynamics Group, Horizons On-Line Ephemeris System
    4800 Oak Grove Drive, Jet Propulsion Laboratory
    Pasadena, CA  91109   USA

    General site: https://ssd.jpl.nasa.gov/
    Mailing list: https://ssd.jpl.nasa.gov/email_list.html
    System news : https://ssd.jpl.nasa.gov/horizons/news.html
    User Guide  : https://ssd.jpl.nasa.gov/horizons/manual.html
    Connect     : browser        https://ssd.jpl.nasa.gov/horizons/app.html#/x
                  API            https://ssd-api.jpl.nasa.gov/doc/horizons.html
                  command-line   telnet ssd.jpl.nasa.gov 6775
                  e-mail/batch   https://ssd.jpl.nasa.gov/ftp/ssd/horizons_batch.txt
                  scripts        https://ssd.jpl.nasa.gov/ftp/ssd/SCRIPTS
    Author      : Jon.D.Giorgini@jpl.nasa.gov
*******************************************************************************
